start=new Date('2022-04-02T00:00:00.000Z').valueOf();
sats=[{"LAUNCH_DATE":"2021-03-11","TLE_LINE1":"1 47829U 21018AU  22091.67119159  .00002052  00000-0  15660-3 0  9995","CENTER_NAME":"EARTH","MEAN_MOTION":"15.06407487","TIME_SYSTEM":"UTC","TLE_LINE2":"2 47829  53.0534 237.1437 0001675  51.0630 309.0508 15.06407487 59701","SEMIMAJOR_AXIS":"6925.326","CLASSIFICATION_TYPE":"U","MEAN_ANOMALY":"309.0508","INCLINATION":"53.0534","BSTAR":"0.00015660000000","COUNTRY_CODE":"US","MEAN_ELEMENT_THEORY":"SGP4","NORAD_CAT_ID":"47829","OBJECT_ID":"2021-018AU","PERIOD":"95.592","OBJECT_TYPE":"PAYLOAD","FILE":"3383778","RCS_SIZE":"MEDIUM","ELEMENT_SET_NO":"999","DECAY_DATE":null,"APOAPSIS":"548.351","REF_FRAME":"TEME","OBJECT_NAME":"STARLINK-2416","GP_ID":"200263939","MEAN_MOTION_DDOT":"0.0000000000000","SITE":"AFETR","RA_OF_ASC_NODE":"237.1437","EPOCH":"2022-04-01T16:06:30.953376","REV_AT_EPOCH":"5970","ECCENTRICITY":"0.00016750","EPHEMERIS_TYPE":"0","ARG_OF_PERICENTER":"51.0630","MEAN_MOTION_DOT":"0.00002052","PERIAPSIS":"546.031"},{"SITE":"AFETR","MEAN_MOTION_DDOT":"0.0000000000000","GP_ID":"200262695","OBJECT_NAME":"STARLINK-2419","PERIAPSIS":"546.092","MEAN_MOTION_DOT":"0.00010168","ARG_OF_PERICENTER":"63.0337","ECCENTRICITY":"0.00015170","EPHEMERIS_TYPE":"0","REV_AT_EPOCH":"5972","EPOCH":"2022-04-01T19:12:17.337024","RA_OF_ASC_NODE":"236.5604","DECAY_DATE":null,"ELEMENT_SET_NO":"999","RCS_SIZE":"LARGE","REF_FRAME":"TEME","APOAPSIS":"548.193","MEAN_ELEMENT_THEORY":"SGP4","BSTAR":"0.00070007000000","COUNTRY_CODE":"US","INCLINATION":"53.0536","FILE":"3383778","OBJECT_TYPE":"PAYLOAD","PERIOD":"95.591","NORAD_CAT_ID":"47830","OBJECT_ID":"2021-018AV","TLE_LINE2":"2 47830  53.0536 236.5604 0001517  63.0337 297.0806 15.06423094 59727","TIME_SYSTEM":"UTC","MEAN_MOTION":"15.06423094","CENTER_NAME":"EARTH","TLE_LINE1":"1 47830U 21018AV  22091.80020066  .00010168  00000-0  70007-3 0  9993","LAUNCH_DATE":"2021-03-11","MEAN_ANOMALY":"297.0806","CLASSIFICATION_TYPE":"U","SEMIMAJOR_AXIS":"6925.278"},{"NORAD_CAT_ID":"47831","OBJECT_ID":"2021-018AW","PERIOD":"95.590","FILE":"3383353","OBJECT_TYPE":"PAYLOAD","INCLINATION":"53.0593","COUNTRY_CODE":"US","BSTAR":"0.00061940000000","MEAN_ELEMENT_THEORY":"SGP4","SEMIMAJOR_AXIS":"6925.261","CLASSIFICATION_TYPE":"U","MEAN_ANOMALY":"299.0383","TLE_LINE1":"1 47831U 21018AW  22091.60161851  .00008963  00000-0  61940-3 0  9996","LAUNCH_DATE":"2021-03-11","TIME_SYSTEM":"UTC","MEAN_MOTION":"15.06428581","CENTER_NAME":"EARTH","TLE_LINE2":"2 47831  53.0593 212.4370 0001488  61.0755 299.0383 15.06428581 60105","REV_AT_EPOCH":"6010","EPOCH":"2022-04-01T14:26:19.839264","RA_OF_ASC_NODE":"212.4370","ARG_OF_PERICENTER":"61.0755","EPHEMERIS_TYPE":"0","ECCENTRICITY":"0.00014880","MEAN_MOTION_DOT":"0.00008963","PERIAPSIS":"546.095","OBJECT_NAME":"STARLINK-2420","GP_ID":"200229664","MEAN_MOTION_DDOT":"0.0000000000000","SITE":"AFETR","APOAPSIS":"548.156","REF_FRAME":"TEME","ELEMENT_SET_NO":"999","RCS_SIZE":"LARGE","DECAY_DATE":null},{"RCS_SIZE":"LARGE","ELEMENT_SET_NO":"999","DECAY_DATE":null,"APOAPSIS":"548.074","REF_FRAME":"TEME","GP_ID":"200263697","OBJECT_NAME":"STARLINK-2422","MEAN_MOTION_DDOT":"0.0000000000000","SITE":"AFETR","EPOCH":"2022-04-01T18:09:53.898048","RA_OF_ASC_NODE":"226.7594","REV_AT_EPOCH":"5986","EPHEMERIS_TYPE":"0","ECCENTRICITY":"0.00013410","ARG_OF_PERICENTER":"79.4321","PERIAPSIS":"546.216","MEAN_MOTION_DOT":"0.00013059","LAUNCH_DATE":"2021-03-11","TLE_LINE1":"1 47832U 21018AX  22091.75687382  .00013059  00000-0  89342-3 0  9993","MEAN_MOTION":"15.06422417","CENTER_NAME":"EARTH","TIME_SYSTEM":"UTC","TLE_LINE2":"2 47832  53.0534 226.7594 0001341  79.4321 280.6819 15.06422417 59860","SEMIMAJOR_AXIS":"6925.280","CLASSIFICATION_TYPE":"U","MEAN_ANOMALY":"280.6819","INCLINATION":"53.0534","COUNTRY_CODE":"US","BSTAR":"0.00089342000000","MEAN_ELEMENT_THEORY":"SGP4","NORAD_CAT_ID":"47832","OBJECT_ID":"2021-018AX","PERIOD":"95.591","OBJECT_TYPE":"PAYLOAD","FILE":"3383778"},{"INCLINATION":"53.0532","MEAN_ELEMENT_THEORY":"SGP4","COUNTRY_CODE":"US","BSTAR":"0.00056787000000","NORAD_CAT_ID":"47833","OBJECT_ID":"2021-018AY","FILE":"3383778","OBJECT_TYPE":"PAYLOAD","PERIOD":"95.591","TIME_SYSTEM":"UTC","MEAN_MOTION":"15.06424439","CENTER_NAME":"EARTH","TLE_LINE1":"1 47833U 21018AY  22091.78269013  .00008192  00000-0  56787-3 0  9993","LAUNCH_DATE":"2021-03-11","TLE_LINE2":"2 47833  53.0532 226.6451 0001577  54.4520 305.6616 15.06424439 59921","SEMIMAJOR_AXIS":"6925.274","MEAN_ANOMALY":"305.6616","CLASSIFICATION_TYPE":"U","OBJECT_NAME":"STARLINK-2423","GP_ID":"200264440","SITE":"AFETR","MEAN_MOTION_DDOT":"0.0000000000000","ARG_OF_PERICENTER":"54.4520","ECCENTRICITY":"0.00015770","EPHEMERIS_TYPE":"0","REV_AT_EPOCH":"5992","EPOCH":"2022-04-01T18:47:04.427232","RA_OF_ASC_NODE":"226.6451","PERIAPSIS":"546.047","MEAN_MOTION_DOT":"0.00008192","DECAY_DATE":null,"ELEMENT_SET_NO":"999","RCS_SIZE":"LARGE","APOAPSIS":"548.231","REF_FRAME":"TEME"},{"NORAD_CAT_ID":"47834","OBJECT_ID":"2021-018AZ","PERIOD":"95.591","OBJECT_TYPE":"PAYLOAD","FILE":"3383778","INCLINATION":"53.0536","BSTAR":"0.00036247000000","COUNTRY_CODE":"US","MEAN_ELEMENT_THEORY":"SGP4","SEMIMAJOR_AXIS":"6925.312","CLASSIFICATION_TYPE":"U","MEAN_ANOMALY":"291.8626","LAUNCH_DATE":"2021-03-11","TLE_LINE1":"1 47834U 21018AZ  22091.59470366  .00005123  00000-0  36247-3 0  9998","CENTER_NAME":"EARTH","MEAN_MOTION":"15.06411876","TIME_SYSTEM":"UTC","TLE_LINE2":"2 47834  53.0536 227.4837 0001674  68.2541 291.8626 15.06411876 59891","EPOCH":"2022-04-01T14:16:22.396224","RA_OF_ASC_NODE":"227.4837","REV_AT_EPOCH":"5989","ECCENTRICITY":"0.00016740","EPHEMERIS_TYPE":"0","ARG_OF_PERICENTER":"68.2541","MEAN_MOTION_DOT":"0.00005123","PERIAPSIS":"546.018","GP_ID":"200263196","OBJECT_NAME":"STARLINK-2424","MEAN_MOTION_DDOT":"0.0000000000000","SITE":"AFETR","APOAPSIS":"548.336","REF_FRAME":"TEME","RCS_SIZE":"LARGE","ELEMENT_SET_NO":"999","DECAY_DATE":null},{"MEAN_ANOMALY":"300.7537","CLASSIFICATION_TYPE":"U","SEMIMAJOR_AXIS":"6925.302","TLE_LINE2":"2 47835  53.0522 231.5118 0001546  59.3604 300.7537 15.06415301 59791","TIME_SYSTEM":"UTC","MEAN_MOTION":"15.06415301","CENTER_NAME":"EARTH","TLE_LINE1":"1 47835U 21018BA  22091.80892307  .00002283  00000-0  17207-3 0  9995","LAUNCH_DATE":"2021-03-11","FILE":"3383778","OBJECT_TYPE":"PAYLOAD","PERIOD":"95.591","NORAD_CAT_ID":"47835","OBJECT_ID":"2021-018BA","MEAN_ELEMENT_THEORY":"SGP4","BSTAR":"0.00017207000000","COUNTRY_CODE":"US","INCLINATION":"53.0522","REF_FRAME":"TEME","APOAPSIS":"548.237","DECAY_DATE":null,"ELEMENT_SET_NO":"999","RCS_SIZE":"LARGE","PERIAPSIS":"546.096","MEAN_MOTION_DOT":"0.00002283","ARG_OF_PERICENTER":"59.3604","ECCENTRICITY":"0.00015460","EPHEMERIS_TYPE":"0","REV_AT_EPOCH":"5979","RA_OF_ASC_NODE":"231.5118","EPOCH":"2022-04-01T19:24:50.953248","SITE":"AFETR","MEAN_MOTION_DDOT":"0.0000000000000","GP_ID":"200262945","OBJECT_NAME":"STARLINK-2425"},{"TLE_LINE2":"2 47836  53.0548 226.5460 0001512  70.2867 289.8285 15.06420845 59875","MEAN_MOTION":"15.06420845","CENTER_NAME":"EARTH","TIME_SYSTEM":"UTC","LAUNCH_DATE":"2021-03-11","TLE_LINE1":"1 47836U 21018BB  22091.80385978  .00005270  00000-0  37224-3 0  9997","MEAN_ANOMALY":"289.8285","CLASSIFICATION_TYPE":"U","SEMIMAJOR_AXIS":"6925.285","MEAN_ELEMENT_THEORY":"SGP4","COUNTRY_CODE":"US","BSTAR":"0.00037224000000","INCLINATION":"53.0548","OBJECT_TYPE":"PAYLOAD","FILE":"3383778","PERIOD":"95.591","OBJECT_ID":"2021-018BB","NORAD_CAT_ID":"47836","DECAY_DATE":null,"RCS_SIZE":"LARGE","ELEMENT_SET_NO":"999","REF_FRAME":"TEME","APOAPSIS":"548.197","SITE":"AFETR","MEAN_MOTION_DDOT":"0.0000000000000","OBJECT_NAME":"STARLINK-2426","GP_ID":"200264198","PERIAPSIS":"546.103","MEAN_MOTION_DOT":"0.00005270","ECCENTRICITY":"0.00015120","EPHEMERIS_TYPE":"0","ARG_OF_PERICENTER":"70.2867","EPOCH":"2022-04-01T19:17:33.484992","RA_OF_ASC_NODE":"226.5460","REV_AT_EPOCH":"5987"},{"MEAN_MOTION_DDOT":"0.0000000000000","SITE":"AFETR","GP_ID":"200263940","OBJECT_NAME":"STARLINK-2427","PERIAPSIS":"545.868","MEAN_MOTION_DOT":"0.00005514","REV_AT_EPOCH":"6014","RA_OF_ASC_NODE":"207.0650","EPOCH":"2022-04-01T16:31:43.611744","ARG_OF_PERICENTER":"53.7761","EPHEMERIS_TYPE":"0","ECCENTRICITY":"0.00018540","ELEMENT_SET_NO":"999","RCS_SIZE":"LARGE","DECAY_DATE":null,"REF_FRAME":"TEME","APOAPSIS":"548.436","COUNTRY_CODE":"US","BSTAR":"0.00038857000000","MEAN_ELEMENT_THEORY":"SGP4","INCLINATION":"53.0536","PERIOD":"95.591","FILE":"3383778","OBJECT_TYPE":"PAYLOAD","OBJECT_ID":"2021-018BC","NORAD_CAT_ID":"47837","TLE_LINE2":"2 47837  53.0536 207.0650 0001854  53.7761 306.3399 15.06420169 60148","TLE_LINE1":"1 47837U 21018BC  22091.68869921  .00005514  00000-0  38857-3 0  9993","LAUNCH_DATE":"2021-03-11","TIME_SYSTEM":"UTC","MEAN_MOTION":"15.06420169","CENTER_NAME":"EARTH","CLASSIFICATION_TYPE":"U","MEAN_ANOMALY":"306.3399","SEMIMAJOR_AXIS":"6925.287"},{"OBJECT_NAME":"STARLINK-2429","GP_ID":"200262696","MEAN_MOTION_DDOT":"0.0000000000000","SITE":"AFETR","REV_AT_EPOCH":"5987","EPOCH":"2022-04-01T20:01:22.658592","RA_OF_ASC_NODE":"226.4035","ARG_OF_PERICENTER":"62.2971","ECCENTRICITY":"0.00015870","EPHEMERIS_TYPE":"0","PERIAPSIS":"546.042","MEAN_MOTION_DOT":"0.00005325","ELEMENT_SET_NO":"999","RCS_SIZE":"LARGE","DECAY_DATE":null,"APOAPSIS":"548.240","REF_FRAME":"TEME","INCLINATION":"53.0536","BSTAR":"0.00037588000000","COUNTRY_CODE":"US","MEAN_ELEMENT_THEORY":"SGP4","NORAD_CAT_ID":"47838","OBJECT_ID":"2021-018BD","PERIOD":"95.591","FILE":"3383778","OBJECT_TYPE":"PAYLOAD","TLE_LINE1":"1 47838U 21018BD  22091.83429003  .00005325  00000-0  37588-3 0  9994","LAUNCH_DATE":"2021-03-11","TIME_SYSTEM":"UTC","MEAN_MOTION":"15.06423824","CENTER_NAME":"EARTH","TLE_LINE2":"2 47838  53.0536 226.4035 0001587  62.2971 297.8179 15.06423824 59871","SEMIMAJOR_AXIS":"6925.276","CLASSIFICATION_TYPE":"U","MEAN_ANOMALY":"297.8179"}];
